STARLINK-31600          
1 59341U 24057X   25337.13787792 -.00002443  00000+0 -79275-4 0  9992
2 59341  43.0041  20.0538 0002634 284.7563  75.2997 15.27566525 94987
STARLINK-31628          
1 59342U 24057Y   25337.08872689  .00001132  00000+0  50651-4 0  9996
2 59342  43.0033  12.7550 0000871 278.9949  81.0804 15.27581206 95060
STARLINK-31605          
1 59348U 24060A   25336.96695216  .00001443  00000+0  61950-4 0  9990
2 59348  43.0014  75.4293 0001334 292.2663  67.8047 15.27573501 95332
STARLINK-31532          
1 59349U 24060B   25337.31555213 -.00003142  00000+0 -10464-3 0  9996
2 59349  43.0028  84.1298 0003768 283.0259  77.0172 15.27584134 95372
STARLINK-31593          
1 59350U 24060C   25337.35138846 -.00000148  00000+0  41309-5 0  9997
2 59350  43.0020  83.5353 0001085 230.7552 129.3204 15.27555244 95339
STARLINK-31555          
1 59351U 24060D   25337.32327495  .00000734  00000+0  36202-4 0  9990
2 59351  43.0025  84.1853 0001252 258.0815 101.9896 15.27562969 95377
STARLINK-31561          
1 59352U 24060E   25337.34882274 -.00000484  00000+0 -80574-5 0  9990
2 59352  43.0029  83.5206 0001021 277.7667  82.3068 15.27568930 95337
STARLINK-31413          
1 59353U 24060F   25337.36295411  .00000430  00000+0  25160-4 0  9992
2 59353  43.0027  83.6224 0001219 265.6949  94.3763 15.27573316 95334
STARLINK-31422          
1 59354U 24060G   25337.34511133 -.00000959  00000+0 -25350-4 0  9992
2 59354  43.0027  84.3548 0001184 281.3821  78.6898 15.27573468 95328
STARLINK-31416          
1 59355U 24060H   25337.31940689  .00003347  00000+0  13108-3 0  9991
2 59355  42.9987  84.1550 0001458 272.7950  87.2734 15.27580922 95322
STARLINK-31552          
1 59356U 24060J   25337.34125768  .00001988  00000+0  81760-4 0  9997
2 59356  43.0015  84.3409 0001456 288.0368  72.0325 15.27572359 95326
STARLINK-31557          
1 59357U 24060K   25337.33516589 -.00000406  00000+0 -52306-5 0  9993
2 59357  43.0024  79.9244 0001227 304.3013  55.7722 15.27572135 95375
STARLINK-31559          
1 59358U 24060L   25337.30528018 -.00001697  00000+0 -52151-4 0  9991
2 59358  43.0068  84.0527 0001811 279.2748  80.7899 15.27585660 95324
STARLINK-31501          
1 59359U 24060M   25337.33354941  .00001480  00000+0  63271-4 0  9990
2 59359  42.9997  84.2683 0000756 291.3013  68.7757 15.27587881 95322
STARLINK-31549          
1 59360U 24060N   25336.37831049  .00000846  00000+0  40294-4 0  9999
2 59360  43.0052  89.1336 0001698 280.8732  79.1928 15.27551636 95183
STARLINK-31560          
1 59361U 24060P   25336.60785863 -.00000008  00000+0  92247-5 0  9995
2 59361  42.9988  88.2705 0001332 283.5589  76.5114 15.27589880 95219
