[{"OBJECT_NAME":"STARLINK-31600","OBJECT_ID":"2024-057X","EPOCH":"2025-12-03T03:18:32.652288","MEAN_MOTION":15.27566525,"ECCENTRICITY":0.00026341,"INCLINATION":43.0041,"RA_OF_ASC_NODE":20.0538,"ARG_OF_PERICENTER":284.7563,"MEAN_ANOMALY":75.2997,"EPHEMERIS_TYPE":0,"CLASSIFICATION_TYPE":"U","NORAD_CAT_ID":59341,"ELEMENT_SET_NO":999,"REV_AT_EPOCH":9498,"BSTAR":-7.9274663e-5,"MEAN_MOTION_DOT":-2.443e-5,"MEAN_MOTION_DDOT":0},{"OBJECT_NAME":"STARLINK-31628","OBJECT_ID":"2024-057Y","EPOCH":"2025-12-03T02:07:46.003296","MEAN_MOTION":15.27581206,"ECCENTRICITY":8.716e-5,"INCLINATION":43.0033,"RA_OF_ASC_NODE":12.755,"ARG_OF_PERICENTER":278.9949,"MEAN_ANOMALY":81.0804,"EPHEMERIS_TYPE":0,"CLASSIFICATION_TYPE":"U","NORAD_CAT_ID":59342,"ELEMENT_SET_NO":999,"REV_AT_EPOCH":9506,"BSTAR":5.0650558e-5,"MEAN_MOTION_DOT":1.132e-5,"MEAN_MOTION_DDOT":0},{"OBJECT_NAME":"STARLINK-31605","OBJECT_ID":"2024-060A","EPOCH":"2025-12-02T23:12:24.666624","MEAN_MOTION":15.27573501,"ECCENTRICITY":0.00013345,"INCLINATION":43.0014,"RA_OF_ASC_NODE":75.4293,"ARG_OF_PERICENTER":292.2663,"MEAN_ANOMALY":67.8047,"EPHEMERIS_TYPE":0,"CLASSIFICATION_TYPE":"U","NORAD_CAT_ID":59348,"ELEMENT_SET_NO":999,"REV_AT_EPOCH":9533,"BSTAR":6.1950238e-5,"MEAN_MOTION_DOT":1.443e-5,"MEAN_MOTION_DDOT":0},{"OBJECT_NAME":"STARLINK-31532","OBJECT_ID":"2024-060B","EPOCH":"2025-12-03T07:34:23.704032","MEAN_MOTION":15.27584134,"ECCENTRICITY":0.00037683,"INCLINATION":43.0028,"RA_OF_ASC_NODE":84.1298,"ARG_OF_PERICENTER":283.0259,"MEAN_ANOMALY":77.0172,"EPHEMERIS_TYPE":0,"CLASSIFICATION_TYPE":"U","NORAD_CAT_ID":59349,"ELEMENT_SET_NO":999,"REV_AT_EPOCH":9537,"BSTAR":-0.00010464146,"MEAN_MOTION_DOT":-3.142e-5,"MEAN_MOTION_DDOT":0},{"OBJECT_NAME":"STARLINK-31593","OBJECT_ID":"2024-060C","EPOCH":"2025-12-03T08:25:59.962944","MEAN_MOTION":15.27555244,"ECCENTRICITY":0.00010855,"INCLINATION":43.002,"RA_OF_ASC_NODE":83.5353,"ARG_OF_PERICENTER":230.7552,"MEAN_ANOMALY":129.3204,"EPHEMERIS_TYPE":0,"CLASSIFICATION_TYPE":"U","NORAD_CAT_ID":59350,"ELEMENT_SET_NO":999,"REV_AT_EPOCH":9533,"BSTAR":4.130853e-6,"MEAN_MOTION_DOT":-1.48e-6,"MEAN_MOTION_DDOT":0},{"OBJECT_NAME":"STARLINK-31555","OBJECT_ID":"2024-060D","EPOCH":"2025-12-03T07:45:30.955680","MEAN_MOTION":15.27562969,"ECCENTRICITY":0.00012529,"INCLINATION":43.0025,"RA_OF_ASC_NODE":84.1853,"ARG_OF_PERICENTER":258.0815,"MEAN_ANOMALY":101.9896,"EPHEMERIS_TYPE":0,"CLASSIFICATION_TYPE":"U","NORAD_CAT_ID":59351,"ELEMENT_SET_NO":999,"REV_AT_EPOCH":9537,"BSTAR":3.6201547e-5,"MEAN_MOTION_DOT":7.34e-6,"MEAN_MOTION_DDOT":0},{"OBJECT_NAME":"STARLINK-31561","OBJECT_ID":"2024-060E","EPOCH":"2025-12-03T08:22:18.284736","MEAN_MOTION":15.2756893,"ECCENTRICITY":0.00010219,"INCLINATION":43.0029,"RA_OF_ASC_NODE":83.5206,"ARG_OF_PERICENTER":277.7667,"MEAN_ANOMALY":82.3068,"EPHEMERIS_TYPE":0,"CLASSIFICATION_TYPE":"U","NORAD_CAT_ID":59352,"ELEMENT_SET_NO":999,"REV_AT_EPOCH":9533,"BSTAR":-8.057362e-6,"MEAN_MOTION_DOT":-4.84e-6,"MEAN_MOTION_DDOT":0},{"OBJECT_NAME":"STARLINK-31413","OBJECT_ID":"2024-060F","EPOCH":"2025-12-03T08:42:39.235104","MEAN_MOTION":15.27573316,"ECCENTRICITY":0.00012194,"INCLINATION":43.0027,"RA_OF_ASC_NODE":83.6224,"ARG_OF_PERICENTER":265.6949,"MEAN_ANOMALY":94.3763,"EPHEMERIS_TYPE":0,"CLASSIFICATION_TYPE":"U","NORAD_CAT_ID":59353,"ELEMENT_SET_NO":999,"REV_AT_EPOCH":9533,"BSTAR":2.5160345e-5,"MEAN_MOTION_DOT":4.3e-6,"MEAN_MOTION_DDOT":0},{"OBJECT_NAME":"STARLINK-31422","OBJECT_ID":"2024-060G","EPOCH":"2025-12-03T08:16:57.618912","MEAN_MOTION":15.27573468,"ECCENTRICITY":0.00011848,"INCLINATION":43.0027,"RA_OF_ASC_NODE":84.3548,"ARG_OF_PERICENTER":281.3821,"MEAN_ANOMALY":78.6898,"EPHEMERIS_TYPE":0,"CLASSIFICATION_TYPE":"U","NORAD_CAT_ID":59354,"ELEMENT_SET_NO":999,"REV_AT_EPOCH":9532,"BSTAR":-2.535007e-5,"MEAN_MOTION_DOT":-9.59e-6,"MEAN_MOTION_DDOT":0},{"OBJECT_NAME":"STARLINK-31416","OBJECT_ID":"2024-060H","EPOCH":"2025-12-03T07:39:56.755296","MEAN_MOTION":15.27580922,"ECCENTRICITY":0.00014589,"INCLINATION":42.9987,"RA_OF_ASC_NODE":84.155,"ARG_OF_PERICENTER":272.795,"MEAN_ANOMALY":87.2734,"EPHEMERIS_TYPE":0,"CLASSIFICATION_TYPE":"U","NORAD_CAT_ID":59355,"ELEMENT_SET_NO":999,"REV_AT_EPOCH":9532,"BSTAR":0.00013107997,"MEAN_MOTION_DOT":3.347e-5,"MEAN_MOTION_DDOT":0},{"OBJECT_NAME":"STARLINK-31552","OBJECT_ID":"2024-060J","EPOCH":"2025-12-03T08:11:24.663552","MEAN_MOTION":15.27572359,"ECCENTRICITY":0.00014566,"INCLINATION":43.0015,"RA_OF_ASC_NODE":84.3409,"ARG_OF_PERICENTER":288.0368,"MEAN_ANOMALY":72.0325,"EPHEMERIS_TYPE":0,"CLASSIFICATION_TYPE":"U","NORAD_CAT_ID":59356,"ELEMENT_SET_NO":999,"REV_AT_EPOCH":9532,"BSTAR":8.1759861e-5,"MEAN_MOTION_DOT":1.988e-5,"MEAN_MOTION_DDOT":0},{"OBJECT_NAME":"STARLINK-31557","OBJECT_ID":"2024-060K","EPOCH":"2025-12-03T08:02:38.332896","MEAN_MOTION":15.27572135,"ECCENTRICITY":0.00012278,"INCLINATION":43.0024,"RA_OF_ASC_NODE":79.9244,"ARG_OF_PERICENTER":304.3013,"MEAN_ANOMALY":55.7722,"EPHEMERIS_TYPE":0,"CLASSIFICATION_TYPE":"U","NORAD_CAT_ID":59357,"ELEMENT_SET_NO":999,"REV_AT_EPOCH":9537,"BSTAR":-5.230567e-6,"MEAN_MOTION_DOT":-4.06e-6,"MEAN_MOTION_DDOT":0},{"OBJECT_NAME":"STARLINK-31559","OBJECT_ID":"2024-060L","EPOCH":"2025-12-03T07:19:36.207552","MEAN_MOTION":15.2758566,"ECCENTRICITY":0.00018112,"INCLINATION":43.0068,"RA_OF_ASC_NODE":84.0527,"ARG_OF_PERICENTER":279.2748,"MEAN_ANOMALY":80.7899,"EPHEMERIS_TYPE":0,"CLASSIFICATION_TYPE":"U","NORAD_CAT_ID":59358,"ELEMENT_SET_NO":999,"REV_AT_EPOCH":9532,"BSTAR":-5.2151466e-5,"MEAN_MOTION_DOT":-1.697e-5,"MEAN_MOTION_DDOT":0},{"OBJECT_NAME":"STARLINK-31501","OBJECT_ID":"2024-060M","EPOCH":"2025-12-03T08:00:18.669024","MEAN_MOTION":15.27587881,"ECCENTRICITY":7.562e-5,"INCLINATION":42.9997,"RA_OF_ASC_NODE":84.2683,"ARG_OF_PERICENTER":291.3013,"MEAN_ANOMALY":68.7757,"EPHEMERIS_TYPE":0,"CLASSIFICATION_TYPE":"U","NORAD_CAT_ID":59359,"ELEMENT_SET_NO":999,"REV_AT_EPOCH":9532,"BSTAR":6.3271471e-5,"MEAN_MOTION_DOT":1.48e-5,"MEAN_MOTION_DDOT":0},{"OBJECT_NAME":"STARLINK-31549","OBJECT_ID":"2024-060N","EPOCH":"2025-12-02T09:04:46.026336","MEAN_MOTION":15.27551636,"ECCENTRICITY":0.00016989,"INCLINATION":43.0052,"RA_OF_ASC_NODE":89.1336,"ARG_OF_PERICENTER":280.8732,"MEAN_ANOMALY":79.1928,"EPHEMERIS_TYPE":0,"CLASSIFICATION_TYPE":"U","NORAD_CAT_ID":59360,"ELEMENT_SET_NO":999,"REV_AT_EPOCH":9518,"BSTAR":4.0293704e-5,"MEAN_MOTION_DOT":8.46e-6,"MEAN_MOTION_DDOT":0},{"OBJECT_NAME":"STARLINK-31560","OBJECT_ID":"2024-060P","EPOCH":"2025-12-02T14:35:18.985632","MEAN_MOTION":15.2758988,"ECCENTRICITY":0.0001332,"INCLINATION":42.9988,"RA_OF_ASC_NODE":88.2705,"ARG_OF_PERICENTER":283.5589,"MEAN_ANOMALY":76.5114,"EPHEMERIS_TYPE":0,"CLASSIFICATION_TYPE":"U","NORAD_CAT_ID":59361,"ELEMENT_SET_NO":999,"REV_AT_EPOCH":9521,"BSTAR":9.224716e-6,"MEAN_MOTION_DOT":-8.0e-8,"MEAN_MOTION_DDOT":0}]
